0 FENGYUN 1C DEB
1 32309U 99025    13290.10324196  .00019298  00000-0  30790-2 0  1221
2 32309 099.9529 019.9121 0097731 002.6893 357.5308 14.68787010331291
0 FENGYUN 1C DEB
1 32309U 99025    13291.05691784  .00020416  00000-0  32666-2 0  1235
2 32309 099.9538 021.0762 0094787 359.5321 000.6834 14.68835127331433
0 FENGYUN 1C DEB
1 32309U 99025    13293.03229265  .00021192  00000-0  33842-2 0  1246
2 32309 099.9573 023.4905 0094503 353.7380 006.3170 14.68924651331723
0 FENGYUN 1C DEB
1 32309U 99025    13294.46266538  .00021220  00000-0  33842-2 0  1251
2 32309 099.9573 025.2303 0094446 349.4522 010.4695 14.68985250331934
